[{"OBJECT_NAME":"KX-09","OBJECT_ID":"2019-058B","EPOCH":"2026-03-09T23:04:56.318016","MEAN_MOTION":14.96388453,"ECCENTRICITY":0.00095225,"INCLINATION":97.7825,"RA_OF_ASC_NODE":82.8152,"ARG_OF_PERICENTER":321.3855,"MEAN_ANOMALY":38.6684,"EPHEMERIS_TYPE":0,"CLASSIFICATION_TYPE":"U","NORAD_CAT_ID":44520,"ELEMENT_SET_NO":999,"REV_AT_EPOCH":35519,"BSTAR":0.00022385026,"MEAN_MOTION_DOT":2.479e-5,"MEAN_MOTION_DDOT":0},{"OBJECT_NAME":"STARLINK-5849","OBJECT_ID":"2023-037L","EPOCH":"2026-03-09T22:35:24.848448","MEAN_MOTION":14.98330398,"ECCENTRICITY":0.00027473,"INCLINATION":69.9978,"RA_OF_ASC_NODE":283.9917,"ARG_OF_PERICENTER":267.7241,"MEAN_ANOMALY":92.3604,"EPHEMERIS_TYPE":0,"CLASSIFICATION_TYPE":"U","NORAD_CAT_ID":55924,"ELEMENT_SET_NO":999,"REV_AT_EPOCH":16401,"BSTAR":-3.7832407e-5,"MEAN_MOTION_DOT":-5.44e-6,"MEAN_MOTION_DDOT":0}]
